BEIDOU-2 IGSO-1 (C06)   
1 36828U 10036A   25110.81700934 -.00000098  00000+0  00000+0 0  9994
2 36828  54.2666 166.7793 0049032 215.9337 225.7669  1.00293888 53997
BEIDOU-2 G4 (C04)       
1 37210U 10057A   25111.13558549 -.00000108  00000+0  00000+0 0  9994
2 37210   2.5988  70.4388 0005142 205.3450 142.4065  1.00270410 53058
BEIDOU-2 IGSO-2 (C07)   
1 37256U 10068A   25110.99933453 -.00000180  00000+0  00000+0 0  9990
2 37256  48.3136 277.0476 0040585 210.7374 187.2259  1.00253553 52554
BEIDOU-2 IGSO-3 (C08)   
1 37384U 11013A   25110.52353498 -.00000178  00000+0  00000+0 0  9994
2 37384  61.8080  44.1601 0029988 181.1078 280.5169  1.00280844 51428
BEIDOU-2 IGSO-4 (C09)   
1 37763U 11038A   25110.62285920 -.00000013  00000+0  00000+0 0  9995
2 37763  54.5698 169.4523 0141485 230.5543 126.1753  1.00289186 50409
BEIDOU-2 IGSO-5 (C10)   
1 37948U 11073A   25110.90889883 -.00000135  00000+0  00000+0 0  9993
2 37948  48.4505 276.7510 0102627 219.1765 135.5927  1.00261489 49169
BEIDOU-2 G5 (C05)       
1 38091U 12008A   25110.90600193  .00000062  00000+0  00000+0 0  9995
2 38091   2.5205  71.2396 0011490 262.7383 260.1463  1.00274149 48137
BEIDOU-2 M3 (C11)       
1 38250U 12018A   25110.06840704 -.00000034  00000+0  00000+0 0  9994
2 38250  56.1124 319.0958 0020653 272.0558  87.7383  1.86233688 88062
BEIDOU-2 M4 (C12)       
1 38251U 12018B   25110.00005573 -.00000033  00000+0  00000+0 0  9995
2 38251  56.0166 318.3461 0011573 277.1307  82.7675  1.86232109 88064
BEIDOU-2 M6 (C14)       
1 38775U 12050B   25110.24699550  .00000027  00000+0  00000+0 0  9994
2 38775  56.1732  76.9196 0014630 339.6977  20.2274  1.86231007 85437
BEIDOU-2 G6 (C02)       
1 38953U 12059A   25110.88336417 -.00000169  00000+0  00000+0 0  9999
2 38953   3.3463  77.8442 0010608 309.2775 224.0452  1.00275178 45671
BEIDOU-3S IGSO-1S (C31) 
1 40549U 15019A   25110.83774718 -.00000141  00000+0  00000+0 0  9997
2 40549  49.9957 300.5331 0037854 191.3377 112.0514  1.00290474 36831
BEIDOU-3S M2S (C58)     
1 40748U 15037A   25109.12866177 -.00000037  00000+0  00000+0 0  9993
2 40748  55.2400 316.6033 0007978 265.2452  94.6899  1.86229199 66228
BEIDOU-3S M1S (C57)     
1 40749U 15037B   25108.31648639 -.00000042  00000+0  00000+0 0  9991
2 40749  55.2369 316.6237 0004203  21.7169 338.3268  1.86253867 66213
BEIDOU-3S IGSO-2S (C56) 
1 40938U 15053A   25110.72651671 -.00000127  00000+0  00000+0 0  9991
2 40938  49.8797 263.7926 0057416 186.6739 116.0282  1.00280701 35117
BEIDOU-2 IGSO-6 (C13)   
1 41434U 16021A   25106.80016405 -.00000146  00000+0  00000+0 0  9994
2 41434  59.6259  42.2943 0052380 229.9104 314.1715  1.00256979 33202
BEIDOU-2 G7 (C03)       
1 41586U 16037A   25110.91150524 -.00000349  00000+0  00000+0 0  9992
2 41586   1.6242  68.1274 0010299 338.6852 241.0948  1.00274296  2657
BEIDOU-3 M1 (C19)       
1 43001U 17069A   25111.08661935  .00000030  00000+0  00000+0 0  9990
2 43001  56.3226  77.0286 0012333 309.7568  50.1193  1.86231271 50740
BEIDOU-3 M2 (C20)       
1 43002U 17069B   25109.41359736  .00000022  00000+0  00000+0 0  9999
2 43002  56.3209  77.1194 0010159 329.8148  30.1079  1.86230888 50702
BEIDOU-3 M7 (C27)       
1 43107U 18003A   25109.15989277 -.00000039  00000+0  00000+0 0  9993
2 43107  54.6983 317.0586 0004994  72.2424 287.8386  1.86232522 49454
BEIDOU-3 M8 (C28)       
1 43108U 18003B   25110.71369994 -.00000032  00000+0  00000+0 0  9999
2 43108  54.6904 316.9888 0002513 279.2208  80.7789  1.86230957 49496
BEIDOU-3 M4 (C22)       
1 43207U 18018A   25110.08088176  .00000027  00000+0  00000+0 0  9998
2 43207  56.2806  77.1405 0007458 350.2110   9.7575  1.86231224 48863
BEIDOU-3 M3 (C21)       
1 43208U 18018B   25110.14740438  .00000027  00000+0  00000+0 0  9992
2 43208  56.2801  77.1424 0010075 320.0461  39.8630  1.86231224 48869
BEIDOU-3 M9 (C29)       
1 43245U 18029A   25110.90284803 -.00000029  00000+0  00000+0 0  9991
2 43245  54.5718 314.6762 0000639  43.3275 316.7032  1.86232664 48036
BEIDOU-3 M10 (C30)      
1 43246U 18029B   25108.68659888 -.00000038  00000+0  00000+0 0  9993
2 43246  54.5708 314.7798 0004768  24.1977 335.8479  1.86229125 47976
BEIDOU-2 IGSO-7 (C16)   
1 43539U 18057A   25110.55558465 -.00000108  00000+0  00000+0 0  9995
2 43539  55.1578 166.7214 0088014 235.8808 119.6775  1.00274565 24887
BEIDOU-3 M5 (C23)       
1 43581U 18062A   25109.98591410  .00000010  00000+0  00000+0 0  9991
2 43581  54.1021 196.6934 0003599 281.0938  78.9142  1.86228711 45759
BEIDOU-3 M6 (C24)       
1 43582U 18062B   25110.38718703  .00000009  00000+0  00000+0 0  9992
2 43582  54.1019 196.6690 0004647  25.7154 334.3552  1.86229432 45760
BEIDOU-3 M12 (C26)      
1 43602U 18067A   25110.32247442  .00000011  00000+0  00000+0 0  9994
2 43602  54.1944 195.3806 0007417  30.4053 329.6873  1.86227867 45240
BEIDOU-3 M11 (C25)      
1 43603U 18067B   25109.91940249  .00000012  00000+0  00000+0 0  9994
2 43603  54.1916 195.3588 0004070  18.9756 341.0902  1.86227318 45264
BEIDOU-3 M13 (C32)      
1 43622U 18072A   25110.41549859  .00000027  00000+0  00000+0 0  9996
2 43622  56.2537  76.6512 0008858 309.8067  50.0990  1.86231270 44782
BEIDOU-3 M14 (C33)      
1 43623U 18072B   25110.28097862  .00000026  00000+0  00000+0 0  9993
2 43623  56.2554  76.6492 0006760 331.4987  28.4477  1.86231307 44770
BEIDOU-3 M16 (C35)      
1 43647U 18078A   25110.97838784 -.00000029  00000+0  00000+0 0  9991
2 43647  54.4676 314.7458 0008007  28.4548 331.6148  1.86232287 44302
BEIDOU-3 M15 (C34)      
1 43648U 18078B   25110.57068488 -.00000030  00000+0  00000+0 0  9996
2 43648  54.4637 314.7618 0005071  39.5335 320.5288  1.86232251 44306
BEIDOU-3 G1 (C59)       
1 43683U 18085A   25110.91741310 -.00000271  00000+0  00000+0 0  9990
2 43683   2.9611  99.5481 0004190   5.9658 214.0705  1.00274085 23829
BEIDOU-3 M17 (C36)      
1 43706U 18093A   25110.72530592  .00000009  00000+0  00000+0 0  9990
2 43706  54.1853 196.6295 0008496 285.4233  74.5297  1.86228387 43657
BEIDOU-3 M18 (C37)      
1 43707U 18093B   25110.58817055  .00000009  00000+0  00000+0 0  9997
2 43707  54.1860 196.6259 0006636 318.3080  41.6886  1.86229839 43669
BEIDOU-3 IGSO-1 (C38)   
1 44204U 19023A   25110.71275094 -.00000210  00000+0  00000+0 0  9995
2 44204  58.0968  42.0172 0021105 226.3306 315.8009  1.00262767  2974
BEIDOU-2 G8 (C01)       
1 44231U 19027A   25110.91828191 -.00000242  00000+0  00000+0 0  9998
2 44231   1.5457  74.8121 0005104 257.5692 351.9935  1.00273272 21841
BEIDOU-3 IGSO-2 (C39)   
1 44337U 19035A   25110.75753465 -.00000107  00000+0  00000+0 0  9997
2 44337  55.2003 162.5714 0035757 208.6867 229.2206  1.00289090 21463
BEIDOU-3 M24 (C46)      
1 44542U 19061A   25110.12192856  .00000010  00000+0  00000+0 0  9998
2 44542  54.4130 196.9969 0007561   1.7186 358.3318  1.86228957 37918
BEIDOU-3 M23 (C45)      
1 44543U 19061B   25110.35381462  .00000010  00000+0  00000+0 0  9997
2 44543  54.4116 196.9580 0004526 345.5186  82.7061  1.86229250 37920
BEIDOU-3 IGSO-3 (C40)   
1 44709U 19073A   25109.88274936 -.00000161  00000+0  00000+0 0  9995
2 44709  55.5270 285.4555 0043316 181.6737 178.2598  1.00263070 20218
BEIDOU-3 M22 (C44)      
1 44793U 19078A   25109.96483335 -.00000032  00000+0  00000+0 0  9994
2 44793  54.3156 314.6755 0007042  35.5039 324.5673  1.86232134 36775
BEIDOU-3 M21 (C43)      
1 44794U 19078B   25110.09696967 -.00000032  00000+0  00000+0 0  9998
2 44794  54.2888 314.6405 0005007  32.9940 327.0616  1.86227777 36772
BEIDOU-3 M19 (C41)      
1 44864U 19090A   25110.47898868  .00000028  00000+0  00000+0 0  9990
2 44864  56.1875  76.8039 0019818 289.2560 160.2798  1.86231587 36364
BEIDOU-3 M20 (C42)      
1 44865U 19090B   25110.34210994  .00000027  00000+0  00000+0 0  9994
2 44865  56.1890  76.8424 0017595 301.3112 146.1241  1.86231520 36340
BEIDOU-3 G2 (C60)       
1 45344U 20017A   25110.90551049 -.00000136  00000+0  00000+0 0  9991
2 45344   2.7749  39.1571 0002756 342.6962 233.3952  1.00272683 19027
BEIDOU-3 G3 (C61)       
1 45807U 20040A   25110.91150524 -.00000349  00000+0  00000+0 0  9991
2 45807   1.4267  62.5431 0002630 320.5998 264.7377  1.00276486 17833
BEIDOU-3 G4 (C62)       
1 56564U 23066A   25110.84990706 -.00000109  00000+0  00000+0 0  9994
2 56564   1.3641 291.1993 0003129 199.6248 184.2965  1.00273077  7167
BEIDOU-3 M28 (C50)      
1 58654U 23207A   25110.17713239  .00000024  00000+0  00000+0 0  9998
2 58654  55.3755  76.6161 0004732 307.2121  52.7281  1.86232051  8965
BEIDOU-3 M26 (C48)      
1 58655U 23207B   25111.05076868  .00000027  00000+0  00000+0 0  9990
2 58655  55.3783  76.5725 0005166 291.0250  68.9047  1.86231590  8963
BEIDOU-3 M25 (C47)      
1 61186U 24168B   25111.15966499 -.00000031  00000+0  00000+0 0  9995
2 61186  54.8426 316.8673 0003694 307.8107 243.1861  1.86230084  3915
BEIDOU-3 M27 (C49)      
1 61187U 24168C   25110.39737106 -.00000033  00000+0  00000+0 0  9994
2 61187  54.8386 316.8781 0002565  23.4348 151.3552  1.86230273  1381
